     2.100          NAVIGATION                              RINEX VERSION / TYPE
fic2rin                                 07/04/2009 02:49:51 PGM / RUN BY / DATE
                                                            END OF HEADER
 1 09  7  3 22  0  0.0 -.695744529366D-04  .420641299570D-11  .000000000000D+00
     .240000000000D+02 -.360312500000D+02  .447947230229D-08  .304367711810D+01
    -.195018947124D-05  .356057507452D-02  .971741974354D-05  .515373848152D+04
     .511200000000D+06 -.447034835815D-07 -.312598185038D+01 -.949949026108D-07
     .961617547711D+00  .191093750000D+03  .921220285025D+00 -.774889420112D-08
     .429660754238D-09  .100000000000D+01  .153800000000D+04  .000000000000D+00
     .240000000000D+01  .630000000000D+02 -.130385160446D-07  .240000000000D+02
     .504006000000D+06  .400000000000D+01
 2 09  7  3 22  0  0.0  .158529728651D-03  .147792889038D-11  .000000000000D+00
     .760000000000D+02  .996875000000D+01  .498092176110D-08  .511054738270D+00
     .337138772011D-06  .905143364798D-02  .807270407677D-05  .515367388916D+04
     .511200000000D+06  .199303030968D-06 -.103820158126D+01 -.149011611938D-07
     .940837715107D+00  .213375000000D+03  .285651562443D+01 -.821784230612D-08
    -.570380901511D-09  .100000000000D+01  .153800000000D+04  .000000000000D+00
     .240000000000D+01  .000000000000D+00 -.172294676304D-07  .760000000000D+02
     .504006000000D+06  .400000000000D+01
 3 09  7  3 22  0  0.0  .415188726038D-03  .522959453519D-11  .000000000000D+00
     .114000000000D+03  .800000000000D+01  .581881380552D-08  .208134908374D+00
     .663101673126D-06  .120194689371D-01  .549294054508D-05  .515362874222D+04
     .511200000000D+06 -.502914190292D-07 -.218675544006D+01  .137835741043D-06
     .926198704968D+00  .251875000000D+03  .910210780493D+00 -.870607692876D-08
     .821462788651D-11  .100000000000D+01  .153800000000D+04  .000000000000D+00
     .340000000000D+01  .000000000000D+00 -.419095158577D-08  .114000000000D+03
     .504006000000D+06  .400000000000D+01
 4 09  7  3 22  0  0.0 -.159472692758D-03 -.162572177942D-10  .000000000000D+00
     .580000000000D+02  .931250000000D+01  .485413076546D-08 -.289625042953D+01
     .441446900368D-06  .860750663560D-02  .870972871780D-05  .515376340675D+04
     .511200000000D+06 -.298023223877D-07 -.101987033998D+01 -.614672899246D-07
     .940054787684D+00  .200000000000D+03  .490389775457D+00 -.794711674360D-08
    -.518235872319D-09  .100000000000D+01  .153800000000D+04  .000000000000D+00
     .240000000000D+01  .000000000000D+00 -.605359673500D-08  .580000000000D+02
     .504006000000D+06  .400000000000D+01
 6 09  7  3 22  0  0.0  .181528739631D-03  .118234311230D-10  .000000000000D+00
     .550000000000D+02  .609375000000D+01  .555415992448D-08  .261630841106D+01
     .508502125740D-06  .597739801742D-02  .527873635292D-05  .515369248009D+04
     .511200000000D+06  .154599547386D-06 -.211884717780D+01 -.502914190292D-07
     .933613354572D+00  .257375000000D+03 -.132402586752D+01 -.831570352529D-08
    -.396445084958D-10  .100000000000D+01  .153800000000D+04  .000000000000D+00
     .240000000000D+01  .000000000000D+00 -.465661287308D-08  .550000000000D+02
     .504006000000D+06  .400000000000D+01
 7 09  7  3 22  0  0.0  .158962793648D-04 -.682121026330D-12  .000000000000D+00
     .200000000000D+02 -.111937500000D+03  .435553856852D-08 -.116253760891D+01
    -.601634383202D-05  .277902302332D-02  .561028718948D-05  .515366470337D+04
     .511200000000D+06  .242143869400D-07  .211744142325D+01 -.260770320892D-07
     .967810059459D+00  .274968750000D+03  .287858586635D+01 -.799354724904D-08
     .282154610015D-10  .100000000000D+01  .153800000000D+04  .000000000000D+00
     .240000000000D+01  .000000000000D+00 -.107102096081D-07  .200000000000D+02
     .504006000000D+06  .400000000000D+01
 8 09  7  3 22  0  0.0 -.210240017623D-03 -.159161572810D-11  .000000000000D+00
     .630000000000D+02 -.111750000000D+03  .385730352932D-08 -.188894126594D+01
    -.601820647717D-05  .106905413559D-01  .691600143909D-05  .515364297485D+04
     .511200000000D+06 -.763684511185D-07  .217858265510D+01 -.210478901863D-06
     .989051943035D+00  .266500000000D+03  .299652544854D+01 -.771603568957D-08
     .928610108910D-10  .100000000000D+01  .153800000000D+04  .000000000000D+00
     .240000000000D+01  .000000000000D+00 -.372529029846D-08  .630000000000D+02
     .504006000000D+06  .400000000000D+01
 9 09  7  3 22  0  0.0  .645397230983D-04  .204636307899D-11  .000000000000D+00
     .760000000000D+02 -.108031250000D+03  .407159816984D-08 -.213099017467D+01
    -.537373125553D-05  .207178408746D-01  .534951686859D-05  .515363463211D+04
     .511200000000D+06  .284984707832D-06  .208368643770D+01  .115483999252D-06
     .976693775788D+00  .275718750000D+03  .148889738312D+01 -.757102964949D-08
     .839320675361D-10  .100000000000D+01  .153800000000D+04  .000000000000D+00
     .240000000000D+01  .000000000000D+00 -.558793544769D-08  .760000000000D+02
     .504006000000D+06  .400000000000D+01
10 09  7  3 22  0  0.0 -.185300596058D-04 -.682121026330D-12  .000000000000D+00
     .280000000000D+02  .103031250000D+03  .421588989445D-08  .148637563859D+01
     .542029738426D-05  .856718618888D-02  .757724046707D-05  .515363659096D+04
     .511200000000D+06 -.124797224998D-06  .461176980844D-01  .335276126862D-07
     .958159087949D+00  .234000000000D+03  .625705161280D+00 -.796890336538D-08
    -.592881838766D-10  .100000000000D+01  .153800000000D+04  .000000000000D+00
     .240000000000D+01  .000000000000D+00 -.279396772385D-08  .280000000000D+02
     .504006000000D+06  .400000000000D+01
11 09  7  3 22  0  0.0 -.913441181183D-05 -.170530256582D-11  .000000000000D+00
     .560000000000D+02 -.721875000000D+01  .617061417371D-08 -.134447192805D+01
    -.402331352234D-06  .946275168099D-02  .717490911484D-05  .515368354034D+04
     .511200000000D+06  .260770320892D-06 -.124023525666D+01 -.949949026108D-07
     .888913964343D+00  .202968750000D+03  .701507292915D+00 -.862785938497D-08
    -.618597195628D-09  .100000000000D+01  .153800000000D+04  .000000000000D+00
     .240000000000D+01  .000000000000D+00 -.116415321827D-07  .560000000000D+02
     .504006000000D+06  .400000000000D+01
12 09  7  3 22  0  0.0 -.256505794823D-03  .613908923697D-11  .000000000000D+00
     .410000000000D+02 -.351562500000D+02  .440875507092D-08 -.117035039313D+01
    -.181049108505D-05  .326556386426D-02  .963918864727D-05  .515362964630D+04
     .511200000000D+06 -.111758708954D-07 -.311364578782D+01 -.800937414169D-07
     .967736828706D+00  .196500000000D+03 -.657710422199D+00 -.781961143249D-08
     .468948104999D-09  .100000000000D+01  .153800000000D+04  .000000000000D+00
     .240000000000D+01  .000000000000D+00 -.116415321827D-07  .410000000000D+02
     .504006000000D+06  .400000000000D+01
13 09  7  3 22  0  0.0  .300712883472D-03  .795807864051D-12  .000000000000D+00
     .840000000000D+02  .161562500000D+02  .387551857376D-08  .112330275459D+01
     .789761543274D-06  .415883958340D-02  .134855508804D-05  .515368412781D+04
     .511200000000D+06 -.204890966415D-07  .112798987829D+01 -.242143869400D-07
     .994656335383D+00  .368250000000D+03  .161177730989D+01 -.803712049261D-08
     .163578242262D-09  .100000000000D+01  .153800000000D+04  .000000000000D+00
     .240000000000D+01  .000000000000D+00 -.111758708954D-07  .840000000000D+02
     .504006000000D+06  .400000000000D+01
14 09  7  3 22  0  0.0 -.853715464473D-04  .568434188608D-11  .000000000000D+00
     .330000000000D+02  .111875000000D+02  .403802534282D-08  .103561448086D+01
     .445172190666D-06  .456336617935D-02  .104680657387D-05  .515362158203D+04
     .511200000000D+06 -.875443220139D-07  .110824512167D+01  .372529029846D-07
     .988149550795D+00  .369562500000D+03 -.216626250324D+01 -.819105547605D-08
     .107147320259D-09  .100000000000D+01  .153800000000D+04  .000000000000D+00
     .240000000000D+01  .000000000000D+00 -.931322574615D-08  .330000000000D+02
     .504006000000D+06  .400000000000D+01
15 09  7  3 22  0  0.0 -.305827707052D-03 -.284217094304D-11  .000000000000D+00
     .540000000000D+02  .193125000000D+02  .467662337156D-08  .119798041864D+01
     .102818012238D-05  .146022601984D-02  .115670263767D-05  .515363307571D+04
     .511200000000D+06  .596046447754D-07  .105458297657D+01 -.372529029846D-08
     .956161989722D+00  .355468750000D+03 -.467917030645D+00 -.835570519152D-08
     .152863510236D-09  .100000000000D+01  .153800000000D+04  .000000000000D+00
     .240000000000D+01  .000000000000D+00 -.977888703346D-08  .540000000000D+02
     .504006000000D+06  .400000000000D+01
16 09  7  3 22  0  0.0  .361851416528D-04 -.352429196937D-11  .000000000000D+00
     .101000000000D+03 -.417812500000D+02  .435625288399D-08  .267938843069D+01
    -.197999179363D-05  .534822850022D-02  .983849167824D-05  .515357732582D+04
     .511200000000D+06 -.856816768646D-07 -.309665441565D+01  .186264514923D-06
     .969162587203D+00  .195437500000D+03 -.324974642418D+00 -.766031908304D-08
     .478234206089D-09  .100000000000D+01  .153800000000D+04  .000000000000D+00
     .240000000000D+01  .000000000000D+00 -.977888703346D-08  .101000000000D+03
     .504006000000D+06  .400000000000D+01
17 09  7  3 22  0  0.0  .681751407683D-04  .227373675443D-11  .000000000000D+00
     .108000000000D+03  .109375000000D+01  .494056293713D-08  .155540070567D+01
     .139698386192D-06  .455758487806D-02  .583194196224D-05  .515369336510D+04
     .511200000000D+06 -.447034835815D-07 -.205452633447D+01  .122934579849D-06
     .959480009348D+00  .269343750000D+03 -.263372245099D+01 -.811890961375D-08
    -.675028117631D-10  .100000000000D+01  .153800000000D+04  .000000000000D+00
     .340000000000D+01  .000000000000D+00 -.102445483208D-07  .108000000000D+03
     .504006000000D+06  .400000000000D+01
